GLOBALSTAR M001         
1 25162U 98008A   24334.90169258  .00000006  00000+0  78251-3 0  9998
2 25162  52.0009 193.2582 0001534 143.4313 338.1089 12.38202694219029
GLOBALSTAR M004         
1 25163U 98008B   24335.17212534 -.00000042  00000+0  34171-3 0  9999
2 25163  52.0010 301.2928 0002592 204.8138 168.9674 12.63380387236638
GLOBALSTAR M002         
1 25164U 98008C   24334.42584082 -.00000067  00000+0  18032-3 0  9992
2 25164  52.0045  21.0706 0001683 142.4615 217.6323 11.61506044160923
GLOBALSTAR M003         
1 25165U 98008D   24334.49806313  .00000034  00000+0  13146-2 0  9997
2 25165  51.9993   1.5668 0007918 249.9995 290.4444 12.12056412209096
GLOBALSTAR M014         
1 25306U 98023A   24334.66277009 -.00000056  00000+0  41011-3 0  9992
2 25306  51.9852 307.8979 0001270   2.5287 169.3061 11.65475444167905
GLOBALSTAR M006         
1 25307U 98023B   24335.35608716 -.00000075  00000+0  17099-4 0  9994
2 25307  51.9967 351.1861 0003672 106.0585 267.0270 11.58169849193902
GLOBALSTAR M015         
1 25308U 98023C   24335.32212828 -.00000058  00000+0  36193-3 0  9993
2 25308  51.9823  80.6249 0013293  84.9599 308.0462 11.48855385171593
GLOBALSTAR M008         
1 25309U 98023D   24334.76371949 -.00000040  00000+0  44033-3 0  9994
2 25309  51.9987  56.2280 0003194 118.1608  34.6208 12.36057175213180
